     2              NAVIGATION DATA                         RINEX VERSION / TYPE
CCRINEXN V1.6.0 UX  CDDIS               28-SEP-07 02:51     PGM / RUN BY / DATE 
IGS BROADCAST EPHEMERIS FILE                                COMMENT             
    0.8382E-08  0.1490E-07 -0.5960E-07 -0.5960E-07          ION ALPHA           
    0.8397E+05  0.1638E+05 -0.1311E+06 -0.6554E+05          ION BETA            
    0.279396772385E-08 0.177635683940E-14   503808     1446 DELTA-UTC: A0,A1,T,W
    14                                                      LEAP SECONDS        
                                                            END OF HEADER       
21 07  9 27  4  0  0.0 0.780192203820E-04-0.227373675443E-12 0.000000000000E+00
    0.670000000000E+02 0.106531250000E+03 0.534200816915E-08-0.302820496149E+01
    0.545941293240E-05 0.130172185600E-01 0.508129596710E-05 0.515360659981E+04
    0.360000000000E+06-0.206753611565E-06-0.203051158476E+01-0.145286321640E-06
    0.938107902657E+00 0.272906250000E+03-0.279330179753E+01-0.851571169136E-08
    0.543594058655E-09 0.100000000000E+01 0.144600000000E+04 0.000000000000E+00
    0.280000000000E+01 0.000000000000E+00-0.121071934700E-07 0.670000000000E+02
    0.355476000000E+06 0.400000000000E+01 0.000000000000E+00 0.000000000000E+00
22 07  9 27  4  0  0.0 0.198913738132E-03 0.125055521494E-11 0.000000000000E+00
    0.400000000000E+02-0.941250000000E+02 0.529879214453E-08 0.535494094096E+00
   -0.487640500069E-05 0.504496775102E-02 0.419281423092E-05 0.515367075348E+04
    0.360000000000E+06-0.111758708954E-07-0.965755505125E+00-0.130385160446E-07
    0.948772663230E+00 0.294656250000E+03-0.175623788085E+01-0.876929384772E-08
   -0.480019994759E-09 0.100000000000E+01 0.144600000000E+04 0.000000000000E+00
    0.200000000000E+01 0.000000000000E+00-0.181607902050E-07 0.400000000000E+02
    0.352818000000E+06 0.400000000000E+01 0.000000000000E+00 0.000000000000E+00
23 07  9 27  4  0  0.0 0.205306336284E-03 0.375166564481E-11 0.000000000000E+00
    0.116000000000E+03-0.180000000000E+02 0.398623756226E-08-0.539267932662E+00
   -0.113435089588E-05 0.531554268673E-02 0.139102339745E-04 0.515361104393E+04
    0.360000000000E+06 0.186264514923E-08 0.361336610892E-01-0.126659870148E-06
    0.971408927172E+00 0.118062500000E+03 0.269642331004E+01-0.772603581112E-08
   -0.435732422366E-10 0.100000000000E+01 0.144600000000E+04 0.000000000000E+00
    0.200000000000E+01 0.000000000000E+00-0.200234353542E-07 0.116000000000E+03
    0.355608000000E+06 0.400000000000E+01 0.000000000000E+00 0.000000000000E+00
24 07  9 27  4  0  0.0 0.337553210556E-04 0.295585778076E-11 0.000000000000E+00
    0.350000000000E+02 0.105687500000E+03 0.502235186772E-08 0.175497605256E+01
    0.546686351299E-05 0.852466735523E-02 0.460073351860E-05 0.515365936661E+04
    0.360000000000E+06 0.968575477600E-07-0.200860633075E+01-0.372529029846E-08
    0.954741273903E+00 0.285718750000E+03-0.791568430014E+00-0.849106829293E-08
    0.447518633262E-09 0.100000000000E+01 0.144600000000E+04 0.000000000000E+00
    0.200000000000E+01 0.000000000000E+00-0.139698386192E-08 0.350000000000E+02
    0.356778000000E+06 0.400000000000E+01 0.000000000000E+00 0.000000000000E+00
25 07  9 27  4  0  0.0 0.448803883046E-03 0.898126018001E-11 0.000000000000E+00
    0.370000000000E+02 0.880312500000E+02 0.467448042516E-08 0.207739668579E+01
    0.446476042271E-05 0.116174236173E-01 0.694580376148E-05 0.515369708252E+04
    0.360000000000E+06 0.232830643654E-06 0.986432270761E+00 0.651925802231E-07
    0.960986591143E+00 0.242656250000E+03-0.129658739065E+01-0.808140805165E-08
    0.551808699333E-09 0.000000000000E+00 0.144600000000E+04 0.000000000000E+00
    0.200000000000E+01 0.000000000000E+00-0.745058059692E-08 0.370000000000E+02
    0.358500000000E+06 0.400000000000E+01 0.000000000000E+00 0.000000000000E+00
26 07  9 27  4  0  0.0 0.418694689870E-04 0.131876731757E-10 0.000000000000E+00
    0.150000000000E+03-0.241562500000E+02 0.345192950100E-08-0.127094572244E+01
   -0.123120844364E-05 0.183106298791E-01 0.149570405483E-04 0.515368798828E+04
    0.360000000000E+06 0.428408384323E-06 0.733440137926E-01 0.188127160072E-06
    0.993333869143E+00 0.105562500000E+03 0.889374787927E+00-0.742209487433E-08
   -0.207151485834E-10 0.100000000000E+01 0.144600000000E+04 0.000000000000E+00
    0.280000000000E+01 0.000000000000E+00-0.651925802231E-08 0.150000000000E+03
    0.352818000000E+06 0.400000000000E+01 0.000000000000E+00 0.000000000000E+00
27 07  9 27  4  0  0.0 0.137635506690E-03 0.238742359215E-11 0.000000000000E+00
    0.740000000000E+02 0.843750000000E+02 0.458733393801E-08 0.223500331071E+01
    0.404007732868E-05 0.206172643229E-01 0.667199492455E-05 0.515365876007E+04
    0.360000000000E+06 0.290572643280E-06 0.102017408127E+01-0.234693288803E-06
    0.965532702701E+00 0.248437500000E+03-0.178462246341E+01-0.793961643118E-08
    0.574666794321E-09 0.100000000000E+01 0.144600000000E+04 0.000000000000E+00
    0.280000000000E+01 0.000000000000E+00-0.419095158577E-08 0.740000000000E+02
    0.352818000000E+06 0.400000000000E+01 0.000000000000E+00 0.000000000000E+00
28 07  9 27  4  0  0.0-0.760564580560E-05-0.682121026330E-12 0.000000000000E+00
    0.810000000000E+02-0.713750000000E+02 0.490413284825E-08 0.110276699671E+01
   -0.370107591152E-05 0.128756061895E-01 0.610202550888E-05 0.515369871521E+04
    0.360000000000E+06-0.195577740669E-06 0.215359776542E+01 0.109896063805E-06
    0.962129073109E+00 0.265250000000E+03-0.216643381680E+01-0.856642825469E-08
   -0.643955394755E-09 0.100000000000E+01 0.144600000000E+04 0.000000000000E+00
    0.280000000000E+01 0.000000000000E+00-0.107102096081E-07 0.810000000000E+02
    0.352818000000E+06 0.400000000000E+01 0.000000000000E+00 0.000000000000E+00
29 07  9 27  4  0  0.0 0.580493360758E-05 0.113686837722E-12 0.000000000000E+00
    0.450000000000E+02-0.424687500000E+02 0.355943397900E-08 0.476739425836E+00
   -0.238791108131E-05 0.103463925188E-01 0.149626284838E-04 0.515369000053E+04
    0.360000000000E+06 0.800937414169E-07 0.372515616428E-01-0.130385160446E-06
    0.989678978982E+00 0.108625000000E+03-0.648554717216E+00-0.766710507999E-08
   -0.939324840936E-10 0.100000000000E+01 0.144600000000E+04 0.000000000000E+00
    0.280000000000E+01 0.000000000000E+00-0.698491930962E-08 0.450000000000E+02
    0.352818000000E+06 0.400000000000E+01 0.000000000000E+00 0.000000000000E+00
30 07  9 27  4  0  0.0 0.470369122922E-04 0.125055521494E-11 0.000000000000E+00
    0.450000000000E+02-0.692187500000E+02 0.525950483166E-08 0.147747342220E+01
   -0.379420816898E-05 0.102573322365E-01 0.467337667942E-05 0.515371253014E+04
    0.360000000000E+06-0.931322574615E-07 0.209090767637E+01-0.188127160072E-06
    0.946776954775E+00 0.283593750000E+03 0.135777271778E+01-0.871786287604E-08
   -0.461447796640E-09 0.100000000000E+01 0.144600000000E+04 0.000000000000E+00
    0.200000000000E+01 0.000000000000E+00-0.745058059692E-08 0.450000000000E+02
    0.352818000000E+06 0.400000000000E+01 0.000000000000E+00 0.000000000000E+00
31 07  9 27  4  0  0.0 0.815000385046E-05-0.136424205266E-11 0.000000000000E+00
    0.510000000000E+02 0.769375000000E+02 0.470233872843E-08-0.232487614246E+01
    0.404566526413E-05 0.630733859725E-02 0.624172389507E-05 0.515357171440E+04
    0.360000000000E+06 0.596046447754E-07 0.107705210798E+01 0.726431608200E-07
    0.963996850841E+00 0.262625000000E+03-0.132851352672E+01-0.819784147300E-08
    0.526093342471E-09 0.100000000000E+01 0.144600000000E+04 0.000000000000E+00
    0.280000000000E+01 0.000000000000E+00-0.130385160446E-07 0.510000000000E+02
    0.352818000000E+06 0.400000000000E+01 0.000000000000E+00 0.000000000000E+00
32 07  9 27  4  0  0.0 0.764233991504E-04 0.159161572810E-10 0.000000000000E+00
    0.740000000000E+02-0.944062500000E+02 0.469019536546E-08-0.356668294472E+00
   -0.490993261337E-05 0.148838701425E-01 0.541843473911E-05 0.515354129219E+04
    0.360000000000E+06-0.167638063431E-06-0.929601433403E+00-0.726431608200E-07
    0.972417881291E+00 0.282968750000E+03-0.138069209294E+01-0.863535969739E-08
   -0.426089176896E-09 0.100000000000E+01 0.144600000000E+04 0.000000000000E+00
    0.280000000000E+01 0.630000000000E+02-0.325962901115E-08 0.740000000000E+02
    0.353358000000E+06 0.400000000000E+01 0.000000000000E+00 0.000000000000E+00
 6 07  9 27  5 59 44.0 0.242968555540E-03-0.329691829393E-11 0.000000000000E+00
    0.450000000000E+02 0.993750000000E+01 0.468412375554E-08-0.184733211314E+01
    0.545755028725E-06 0.562665390316E-02 0.148061662912E-04 0.515369457626E+04
    0.367184000000E+06 0.128522515297E-06 0.313768178788E+01 0.447034835815E-07
    0.934006828333E+00 0.750625000000E+02-0.168196873814E+01-0.804712119162E-08
   -0.152863513514E-09 0.100000000000E+01 0.144600000000E+04 0.000000000000E+00
    0.200000000000E+01 0.000000000000E+00-0.465661287308E-08 0.450000000000E+02
    0.360018000000E+06 0.400000000000E+01 0.000000000000E+00 0.000000000000E+00
19 07  9 27  5 59 44.0 0.678137876093E-04 0.238742359215E-11 0.000000000000E+00
    0.340000000000E+02 0.159375000000E+02 0.422981916159E-08 0.126640886237E+01
    0.858679413795E-06 0.415340764448E-02 0.135842710733E-04 0.515361048508E+04
    0.367184000000E+06 0.124797224999E-06-0.304100258640E+01-0.204890966415E-07
    0.958084970668E+00 0.114531250000E+03-0.764000123558E+00-0.785139864235E-08
   -0.253581999149E-10 0.100000000000E+01 0.144600000000E+04 0.000000000000E+00
    0.200000000000E+01 0.000000000000E+00-0.149011611938E-07 0.340000000000E+02
    0.361716000000E+06 0.400000000000E+01 0.000000000000E+00 0.000000000000E+00
